{
  "norad_id": 60370,
  "name": "STARLINK-32220",
  "history": [
    {
      "epoch": "2026-03-28T17:57:17.244000Z",
      "apogee_km": 475.8940568484795,
      "perigee_km": 474.5740975790068,
      "latitude_deg": 8.486760585958803e-06,
      "longitude_deg": 125.7229434320226,
      "height_km": 476.23020372200034,
      "semi_major_axis_km": 6853.371077213743,
      "eccentricity": 9.63e-05,
      "inclination_deg": 53.1609,
      "raan_deg": 221.2089,
      "arg_perigee_deg": 98.4983,
      "mean_anomaly_deg": 261.6127,
      "mean_motion_rev_day": 15.30193634
    }
  ]
}